HST                     
1 20580U 90037B   25150.31357661  .00005233  00000+0  19471-3 0  9996
2 20580  28.4662 166.0532 0002301 246.7201 113.3151 15.25130299729950
POLAR                   
1 23802U 96013A   25150.24481730  .00000132  00000+0  00000+0 0  9990
2 23802  79.4284 231.2321 6110001 222.0036  70.0564  1.29846795139881
SWAS                    
1 25560U 98071A   25150.36760793  .00003150  00000+0  22253-3 0  9992
2 25560  69.8953 131.9819 0004306 156.2551 203.8811 15.05997029439567
CXO                     
1 25867U 99040B   25153.56825561  .00000405  00000+0  00000+0 0  9991
2 25867  49.2477 130.2915 8447311 309.3834 359.8599  0.37807541 15887
XMM-NEWTON              
1 25989U 99066A   25151.42385763 -.00000039  00000+0  00000+0 0  9996
2 25989  66.3301 288.0234 4856952  71.5963   0.2148  0.50134564 21096
TERRA                   
1 25994U 99068A   25150.57419311  .00000492  00000+0  11023-3 0  9999
2 25994  97.9989 209.1348 0002546  31.9524 102.3462 14.60692860353742
CLUSTER II-FM7 (SAMBA)  
1 26410U 00041A   25151.45718605  .00001113  00000+0  00000+0 0  9992
2 26410 144.1388  10.8590 8346732 226.1615   0.1032  0.44808846 18594
CLUSTER II-FM5 (RUMBA)  
1 26463U 00045A   25149.18386446  .00011021  00000+0  00000+0 0  9994
2 26463 152.2994  73.4713 9069036 291.9378   1.4792  0.42906809 18484
CLUSTER II-FM8 (TANGO)  
1 26464U 00045B   25152.91676399  .00001101  00000+0  00000+0 0  9997
2 26464 144.4007  11.2896 8353538 226.4561 359.9822  0.44419090 18606
ODIN                    
1 26702U 01007A   25150.56953277  .00023471  00000+0  59865-3 0  9994
2 26702  97.4465 173.8720 0008019 118.2406 241.9650 15.39488788330040
TIMED                   
1 26998U 01055B   25150.54188633  .00001439  00000+0  13889-3 0  9994
2 26998  74.0686 284.6526 0001666 240.3960 119.7058 14.93927644273656
CORIOLIS                
1 27640U 03001A   25150.62192464  .00000123  00000+0  78648-4 0  9992
2 27640  98.7123 158.3812 0013081 231.8261 128.1737 14.19787287159935
SORCE                   
1 27651U 03004A   25150.59402330  .00003472  00000+0  28152-3 0  9993
2 27651  39.9918 279.1995 0017506 182.9873 177.0817 15.00486802214351
MOST                    
1 27843U 03031D   25150.58979222  .00000077  00000+0  55620-4 0  9993
2 27843  98.7053 158.6491 0008713 278.1827  81.8362 14.21206473136363
SCISAT 1                
1 27858U 03036A   25150.57720341  .00000682  00000+0  93312-4 0  9991
2 27858  73.9303 211.1080 0007704 352.1655   7.9399 14.80705319174800
SWIFT                   
1 28485U 04047A   25150.16665824  .00022066  00000+0  55454-3 0  9994
2 28485  20.5531 183.6642 0006042 144.5083 215.5760 15.37856026127315
HINODE (SOLAR-B)        
1 29479U 06041A   25150.60128195  .00000890  00000+0  16381-3 0  9995
2 29479  98.0720 167.1701 0019033  63.8283 296.4876 14.67896276998721
SHIJIAN-6 02A (SJ-6 02A)
1 29505U 06046A   25150.57672740  .00006794  00000+0  40715-3 0  9993
2 29505  97.6817 184.2242 0004142  42.3214 317.8334 15.11305889 14376
SHIJIAN-6 02B (SJ-6 02B)
1 29506U 06046B   25150.58284935  .00000581  00000+0  51678-4 0  9999
2 29506  97.7077 178.2201 0002107 280.5013  79.5973 14.99841335 13361
FGRST (GLAST)           
1 33053U 08029A   25150.20913874  .00004376  00000+0  17709-3 0  9996
2 33053  25.5831 337.7986 0008995 134.0293 226.0987 15.21050918937405
SDO                     
1 36395U 10005A   25150.36286434 -.00000084  00000+0  00000+0 0  9992
2 36395  33.8507  92.1968 0000581  65.4365 119.3264  1.00271168 56229
CRYOSAT 2               
1 36508U 10013A   25150.57483404  .00000094  00000+0  22571-4 0  9998
2 36508  92.0099 184.8890 0002635 113.8188 246.3296 14.51907127802567
X-SAT                   
1 37389U 11015C   25150.58333077  .00000133  00000+0  74320-4 0  9993
2 37389  98.3112 141.8291 0014724  31.3115 328.8940 14.25037351733181
GCOM-W1 (SHIZUKU)       
1 38337U 12025A   25150.63367662  .00000582  00000+0  13924-3 0  9992
2 38337  98.2016  91.6839 0001622  81.1571  92.0655 14.57098301693320
NUSTAR                  
1 38358U 12031A   25150.58335648  .00003955  00000+0  22215-3 0  9995
2 38358   6.0279  12.6829 0008775 204.0045   1.3937 15.03732251  1309
NEOSSAT                 
1 39089U 13009D   25150.53275891  .00000182  00000+0  77971-4 0  9990
2 39089  98.4071 334.9485 0010083 311.6038  48.4284 14.35606691641833
BRITE-AUSTRIA           
1 39091U 13009F   25150.44042112  .00000208  00000+0  85731-4 0  9993
2 39091  98.3882 334.6580 0009225 307.4631  52.5715 14.36305083642104
IRIS                    
1 39197U 13033A   25150.56505021  .00001330  00000+0  16329-3 0  9996
2 39197  97.9523 345.8974 0026183 127.5062 232.8538 14.84544681643581
HISAKI (SPRINT-A)       
1 39253U 13049A   25150.29527901  .00000138  00000+0  98149-4 0  9993
2 39253  29.7217   6.5720 0136768 152.9073 207.8714 13.55491603579434
CASSIOPE                
1 39265U 13055A   25150.53097135  .00016550 -39986-6  26353-3 0  9996
2 39265  80.9409 160.8832 0392118 245.4524 110.5358 14.97429020609898
STSAT-3                 
1 39422U 13066G   25150.51969099  .00003258  00000+0  26808-3 0  9991
2 39422  97.5605 123.9511 0018776 266.9974  92.9101 14.99665515626791
SWARM B                 
1 39451U 13067A   25150.58626359  .00004252  00000+0  16810-3 0  9997
2 39451  87.7434  98.2460 0003460  86.5557 273.6086 15.25207279624863
SWARM A                 
1 39452U 13067B   25150.56654596  .00008083  00000+0  18764-3 0  9996
2 39452  87.3420 197.1047 0003247  97.6808 262.4817 15.42188483647126
SWARM C                 
1 39453U 13067C   25150.56648684  .00008124  00000+0  18860-3 0  9991
2 39453  87.3418 195.6959 0003239  97.7749 262.3876 15.42190519647087
BRITE-CA1 (TORONTO)     
1 40020U 14033L   25150.64549249  .00001039  00000+0  16657-3 0  9993
2 40020  97.9246 283.1177 0081327  61.9851 298.9553 14.71604163585939
OCO 2                   
1 40059U 14035A   25150.59719114  .00000504  00000+0  12190-3 0  9995
2 40059  98.2011  92.3993 0001752  85.2221 274.9177 14.57093937580335
BRITE-PL2 (HEWELIUSZ)   
1 40119U 14049B   25150.56427747  .00002481  00000+0  24694-3 0  9990
2 40119  97.8895 255.7784 0013209 300.1407  59.8502 14.92519078584339
MMS 1                   
1 40482U 15011A   25150.58335648 -.00000715  00000+0  00000+0 0  9993
2 40482  64.3927 355.5685 8730070 159.1908  82.2308  0.28497490  1395
MMS 2                   
1 40483U 15011B   25150.58335648 -.00000715  00000+0  00000+0 0  9994
2 40483  64.3762 355.5741 8728074 159.1867  82.2277  0.28497814  1396
MMS 3                   
1 40484U 15011C   25150.58335648 -.00000715  00000+0  00000+0 0  9995
2 40484  64.4125 355.5571 8727956 159.1898  82.2210  0.28497758  1398
MMS 4                   
1 40485U 15011D   25150.58335648 -.00000714  00000+0  00000+0 0  9995
2 40485  64.4088 355.5697 8727297 159.1820  78.7815  0.28554258  1399
ASTROSAT                
1 40930U 15052A   25150.36734534  .00001853  00000+0  14830-3 0  9992
2 40930   5.9982  28.5686 0008477 328.1171  31.8444 14.81402808522947
DAMPE                   
1 41173U 15078A   25150.59580079  .00001476  00000+0  54357-4 0  9998
2 41173  97.4476 149.7411 0012298   1.5617 358.5659 15.29407386526047
PISAT                   
1 41784U 16059B   25150.60713046  .00001058  00000+0  19209-3 0  9992
2 41784  97.8159 162.9014 0029263 350.2738   9.7898 14.67915436463592
HXMT (HUIYAN)           
1 42758U 17034A   25150.48890934  .00003546  00000+0  20311-3 0  9996
2 42758  43.0133 146.2153 0036331 249.0540 110.6416 15.13699786439576
FLYING LAPTOP           
1 42831U 17042G   25150.57119287  .00001326  00000+0  11477-3 0  9999
2 42831  97.4067 318.6659 0011936 353.3086   6.7976 14.98698504429104
ZHANGHENG 1 (CSES)      
1 43194U 18015C   25150.60502460  .00008757  00000+0  40129-3 0  9997
2 43194  97.6485 304.5964 0011545 188.5330 171.5711 15.20659121406495
SALSAT                  
1 46495U 20068K   25150.49576794  .00007264  00000+0  31536-3 0  9997
2 46495  97.8605 128.0604 0010998 188.1891 171.9166 15.22596345256993
IXPE                    
1 49954U 21121A   25150.58335648  .00006248  00000+0  36379-3 0  9993
2 49954   0.2304 320.5305 0008378  68.3954 269.6041 15.05391863  5768
